{
  "type": "FeatureCollection",
  "features": [
    {
      "type": "Feature",
      "properties": {
        "norad_id": 41859,
        "name": "GSAT0207 (GALILEO 15)",
        "group": "gnss",
        "lat": -13.178146453364537,
        "lon": -64.23310043794307,
        "alt_km": 23228.159592369986,
        "timestamp": "2025-12-04T07:39:36.382919+00:00",
        "meta_object_name": "GSAT0207 (GALILEO 15)",
        "meta_object_id": "2016-069A",
        "meta_epoch": "2025-12-03T09:54:53.472960",
        "meta_mean_motion": 1.70474233,
        "meta_eccentricity": 0.00021356,
        "meta_inclination": 55.3776,
        "meta_ra_of_asc_node": 106.5086,
        "meta_arg_of_pericenter": 326.0085,
        "meta_mean_anomaly": 33.9336,
        "meta_ephemeris_type": 0,
        "meta_classification_type": "U",
        "meta_norad_cat_id": 41859,
        "meta_element_set_no": 999,
        "meta_rev_at_epoch": 5606,
        "meta_bstar": 0,
        "meta_mean_motion_dot": 2e-07,
        "meta_mean_motion_ddot": 0,
        "tle_line1": "1 41859U 16069A   25337.41311890  .00000020  00000+0  00000+0 0  9996",
        "tle_line2": "2 41859  55.3776 106.5086 0002135 326.0085  33.9336  1.70474233 56068"
      },
      "geometry": {
        "type": "Point",
        "coordinates": [
          -64.23310043794307,
          -13.178146453364537
        ]
      }
    },
    {
      "type": "Feature",
      "properties": {
        "norad_id": 41860,
        "name": "GSAT0212 (GALILEO 16)",
        "group": "gnss",
        "lat": -52.32408515185018,
        "lon": 43.05403592421204,
        "alt_km": 23229.938589339756,
        "timestamp": "2025-12-04T07:39:36.382930+00:00",
        "meta_object_name": "GSAT0212 (GALILEO 16)",
        "meta_object_id": "2016-069B",
        "meta_epoch": "2025-12-02T16:19:30.905184",
        "meta_mean_motion": 1.70474418,
        "meta_eccentricity": 0.00022458,
        "meta_inclination": 55.3738,
        "meta_ra_of_asc_node": 106.5243,
        "meta_arg_of_pericenter": 34.2432,
        "meta_mean_anomaly": 325.7313,
        "meta_ephemeris_type": 0,
        "meta_classification_type": "U",
        "meta_norad_cat_id": 41860,
        "meta_element_set_no": 999,
        "meta_rev_at_epoch": 5630,
        "meta_bstar": 0,
        "meta_mean_motion_dot": 2.7e-07,
        "meta_mean_motion_ddot": 0,
        "tle_line1": "1 41860U 16069B   25336.68021881  .00000027  00000+0  00000+0 0  9991",
        "tle_line2": "2 41860  55.3738 106.5243 0002245  34.2432 325.7313  1.70474418 56308"
      },
      "geometry": {
        "type": "Point",
        "coordinates": [
          43.05403592421204,
          -52.32408515185018
        ]
      }
    },
    {
      "type": "Feature",
      "properties": {
        "norad_id": 41861,
        "name": "GSAT0213 (GALILEO 17)",
        "group": "gnss",
        "lat": 45.620620939421315,
        "lon": 151.34261659425152,
        "alt_km": 23221.047651239664,
        "timestamp": "2025-12-04T07:39:36.382940+00:00",
        "meta_object_name": "GSAT0213 (GALILEO 17)",
        "meta_object_id": "2016-069C",
        "meta_epoch": "2025-12-01T20:59:28.954752",
        "meta_mean_motion": 1.70474717,
        "meta_eccentricity": 0.00020626,
        "meta_inclination": 55.3756,
        "meta_ra_of_asc_node": 106.5542,
        "meta_arg_of_pericenter": 284.0381,
        "meta_mean_anomaly": 75.9044,
        "meta_ephemeris_type": 0,
        "meta_classification_type": "U",
        "meta_norad_cat_id": 41861,
        "meta_element_set_no": 999,
        "meta_rev_at_epoch": 5615,
        "meta_bstar": 0,
        "meta_mean_motion_dot": 3.5e-07,
        "meta_mean_motion_ddot": 0,
        "tle_line1": "1 41861U 16069C   25335.87464068  .00000035  00000+0  00000+0 0  9999",
        "tle_line2": "2 41861  55.3756 106.5542 0002062 284.0381  75.9044  1.70474717 56156"
      },
      "geometry": {
        "type": "Point",
        "coordinates": [
          151.34261659425152,
          45.620620939421315
        ]
      }
    },
    {
      "type": "Feature",
      "properties": {
        "norad_id": 41862,
        "name": "GSAT0214 (GALILEO 18)",
        "group": "gnss",
        "lat": -23.76193215799302,
        "lon": 88.76177533489944,
        "alt_km": 23222.747982612884,
        "timestamp": "2025-12-04T07:39:36.382950+00:00",
        "meta_object_name": "GSAT0214 (GALILEO 18)",
        "meta_object_id": "2016-069D",
        "meta_epoch": "2025-12-02T14:34:22.700352",
        "meta_mean_motion": 1.70474512,
        "meta_eccentricity": 0.0001109,
        "meta_inclination": 55.3745,
        "meta_ra_of_asc_node": 106.5268,
        "meta_arg_of_pericenter": 291.2976,
        "meta_mean_anomaly": 68.6511,
        "meta_ephemeris_type": 0,
        "meta_classification_type": "U",
        "meta_norad_cat_id": 41862,
        "meta_element_set_no": 999,
        "meta_rev_at_epoch": 5629,
        "meta_bstar": 0,
        "meta_mean_motion_dot": 2.8e-07,
        "meta_mean_motion_ddot": 0,
        "tle_line1": "1 41862U 16069D   25336.60720718  .00000028  00000+0  00000+0 0  9991",
        "tle_line2": "2 41862  55.3745 106.5268 0001109 291.2976  68.6511  1.70474512 56297"
      },
      "geometry": {
        "type": "Point",
        "coordinates": [
          88.76177533489944,
          -23.76193215799302
        ]
      }
    },
    {
      "type": "Feature",
      "properties": {
        "norad_id": 42709,
        "name": "SES-15 (WAAS/PRN 133)",
        "group": "gnss",
        "lat": 0.044953530934211554,
        "lon": 59.095340880757675,
        "alt_km": 35788.90951178068,
        "timestamp": "2025-12-04T07:39:36.382961+00:00",
        "meta_object_name": "SES-15 (WAAS/PRN 133)",
        "meta_object_id": "2017-026A",
        "meta_epoch": "2025-12-03T16:34:01.045632",
        "meta_mean_motion": 1.0026701,
        "meta_eccentricity": 3.801e-05,
        "meta_inclination": 0.0204,
        "meta_ra_of_asc_node": 341.0859,
        "meta_arg_of_pericenter": 274.5898,
        "meta_mean_anomaly": 296.434,
        "meta_ephemeris_type": 0,
        "meta_classification_type": "U",
        "meta_norad_cat_id": 42709,
        "meta_element_set_no": 999,
        "meta_rev_at_epoch": 547,
        "meta_bstar": 0,
        "meta_mean_motion_dot": 7.8e-07,
        "meta_mean_motion_ddot": 0,
        "tle_line1": "1 42709U 17026A   25337.69028988  .00000078  00000+0  00000+0 0  9991",
        "tle_line2": "2 42709   0.0204 341.0859 0000380 274.5898 296.4340  1.00267010  5475"
      },
      "geometry": {
        "type": "Point",
        "coordinates": [
          59.095340880757675,
          0.044953530934211554
        ]
      }
    },
    {
      "type": "Feature",
      "properties": {
        "norad_id": 42738,
        "name": "QZS-2 (QZSS/PRN 194)",
        "group": "gnss",
        "lat": 39.55129414549919,
        "lon": -31.150396683902745,
        "alt_km": 38951.55757776714,
        "timestamp": "2025-12-04T07:39:36.382974+00:00",
        "meta_object_name": "QZS-2 (QZSS/PRN 194)",
        "meta_object_id": "2017-028A",
        "meta_epoch": "2025-12-03T14:23:28.548672",
        "meta_mean_motion": 1.00285452,
        "meta_eccentricity": 0.0759039,
        "meta_inclination": 39.729,
        "meta_ra_of_asc_node": 246.0173,
        "meta_arg_of_pericenter": 269.3809,
        "meta_mean_anomaly": 274.5986,
        "meta_ephemeris_type": 0,
        "meta_classification_type": "U",
        "meta_norad_cat_id": 42738,
        "meta_element_set_no": 999,
        "meta_rev_at_epoch": 566,
        "meta_bstar": 0,
        "meta_mean_motion_dot": -1.52e-06,
        "meta_mean_motion_ddot": 0,
        "tle_line1": "1 42738U 17028A   25337.59963598 -.00000152  00000+0  00000+0 0  9993",
        "tle_line2": "2 42738  39.7290 246.0173 0759039 269.3809 274.5986  1.00285452  5664"
      },
      "geometry": {
        "type": "Point",
        "coordinates": [
          -31.150396683902745,
          39.55129414549919
        ]
      }
    },
    {
      "type": "Feature",
      "properties": {
        "norad_id": 42917,
        "name": "QZS-3 (QZSS/PRN 199)",
        "group": "gnss",
        "lat": 0.0640447641291388,
        "lon": -44.717632402509764,
        "alt_km": 35780.36085046751,
        "timestamp": "2025-12-04T07:39:36.382985+00:00",
        "meta_object_name": "QZS-3 (QZSS/PRN 199)",
        "meta_object_id": "2017-048A",
        "meta_epoch": "2025-12-03T19:29:43.259136",
        "meta_mean_motion": 1.00275789,
        "meta_eccentricity": 0.00021677,
        "meta_inclination": 0.0732,
        "meta_ra_of_asc_node": 221.26,
        "meta_arg_of_pericenter": 34.5962,
        "meta_mean_anomaly": 236.4488,
        "meta_ephemeris_type": 0,
        "meta_classification_type": "U",
        "meta_norad_cat_id": 42917,
        "meta_element_set_no": 999,
        "meta_rev_at_epoch": 3030,
        "meta_bstar": 0,
        "meta_mean_motion_dot": -3.3e-06,
        "meta_mean_motion_ddot": 0,
        "tle_line1": "1 42917U 17048A   25337.81230624 -.00000330  00000+0  00000+0 0  9994",
        "tle_line2": "2 42917   0.0732 221.2600 0002167  34.5962 236.4488  1.00275789 30305"
      },
      "geometry": {
        "type": "Point",
        "coordinates": [
          -44.717632402509764,
          0.0640447641291388
        ]
      }
    }
  ]
}